#cP2017 12  2  0  0  0.00000000      96 ORBIT IGS14 HLM  IGS
## 1977 518400.00000000   900.00000000 58089 0.0000000000000
+   31   G01G02G03G05G06G07G08G09G10G11G12G13G14G15G16G17G18
+        G19G20G21G22G23G24G25G26G27G28G29G30G31G32  0  0  0
+          0  0  0  0  0  0  0  0  0  0  0  0  0  0  0  0  0
+          0  0  0  0  0  0  0  0  0  0  0  0  0  0  0  0  0
+          0  0  0  0  0  0  0  0  0  0  0  0  0  0  0  0  0
++         2  2  2  2  2  2  2  2  2  2  2  2  2  2  2  2  2
++         2  2  2  2  2  2  2  2  2  2  2  2  2  2  0  0  0
++         0  0  0  0  0  0  0  0  0  0  0  0  0  0  0  0  0
++         0  0  0  0  0  0  0  0  0  0  0  0  0  0  0  0  0
++         0  0  0  0  0  0  0  0  0  0  0  0  0  0  0  0  0
%c G  cc GPS ccc cccc cccc cccc cccc ccccc ccccc ccccc ccccc
%c cc cc ccc ccc cccc cccc cccc cccc ccccc ccccc ccccc ccccc
%f  1.2500000  1.025000000  0.00000000000  0.000000000000000
%f  0.0000000  0.000000000  0.00000000000  0.000000000000000
%i    0    0    0    0      0      0      0      0         0
%i    0    0    0    0      0      0      0      0         0
/* RAPID ORBIT COMBINATION FROM WEIGHTED AVERAGE OF:        
/* cod emr esa gfz jpl ngs sio usn whu                      
/* REFERENCED TO IGS TIME (IGST) AND TO WEIGHTED MEAN POLE: 
/* PCV:IGS14_1977 OL/AL:FES2004  NONE     Y  ORB:CMB CLK:CMB
*  2017 12  2 16 30  0.00000000
PG01 -11572.918266  21518.109112 -10198.093319    -14.153100     3  3 106       
PG02  20761.208111 -12178.817471 -10359.587943    265.780112  6  5  6  62       
PG03  -3762.432851  14774.212399 -21768.262051    -33.300218  3  7  7 102       
PG05  22677.249699  -4321.515314  13210.521650    -20.955746  7  6  5  92       
PG06  18728.358245   -665.686291 -18806.153586    412.012660  7  5  7 105       
PG07   2707.042983  17101.740382  20217.632740    271.498324  3  4  2  86       
PG08  -7898.210682  17716.906724  18147.723712    -82.693727  5  8  8 106       
PG09   8035.936583  25288.305033   1040.179154    478.569177  4  6  5 103       
PG10 -23359.588886 -10891.676145   6737.919015    122.163770  5  5  6  80       
PG11  -8619.124682  25182.908476  -1319.701530   -728.994794  2  6  6  57       
PG12   7626.246012 -12848.081608 -22108.918052    362.213146  7  9  6 111       
PG13  12821.989568 -10332.424655  20726.103125    -94.465809  3  5  3  79       
PG14 -15598.820042  -7615.310910 -19873.079206    -89.782057  9  6  6  74       
PG15   6010.214548 -19617.039244  16458.769136   -357.334254  5  8  3 106       
PG16 -22394.216075   2183.982250  14301.757301     35.869361  5  6  5 105       
PG17  13882.229483  16932.429140 -14762.136467   -140.731483  6     6  52       
PG18 -15075.325451 -15500.373501  16129.531271    633.207571  6  5  7  98       
PG19  15262.386978   8533.771754 -20205.153940   -472.264875  6  5  6  94       
PG20   7210.597488 -14668.322523  20779.701372    494.449232  4  6  6 112       
PG21  -5808.805683 -16288.263587  20940.138572   -456.557448  4  2  6 113       
PG22 -12146.780967  12690.598862 -19690.691136   -208.876570  3  8  4 112       
PG23    122.404492  24587.457692  -9212.911022   -218.878689  3  8  6  97       
PG24  13061.516310 -21874.429926  -7085.920818    -42.949446  6  9  7 118       
PG25  -6816.674058 -16012.157715 -20286.873592   -499.211937  8  5  3  99       
PG26 -26076.890719  -3332.504840   4189.354720   -340.340312  2  7  6  92       
PG27 -13952.826174   5153.202658  21938.814192    352.833171  5  4  7 110       
PG28  20061.468082  14376.568996  10414.665850    667.575797  5  5  4 109       
PG29  -3261.003367 -26153.830393  -3358.843547    530.575904  5  9  5  94       
PG30  11683.330237  10331.028518  21511.446064    123.764417  6  3  5  96       
PG31 -19782.348684   1868.013766 -17762.087801    158.195479  7  6  7  81       
PG32 -15705.648758 -14337.898458 -15929.080493   -527.540555  8  5  7 100       
*  2017 12  2 16 45  0.00000000
PG01 -12425.500666  22097.639744  -7557.867673    -14.155359     3  3 107       
PG02  20073.714628 -10918.817265 -12752.314797    265.771183  5  5  6  83       
PG03  -6174.218858  14209.093800 -21589.116532    -33.294928  3  8  7  99       
PG05  23989.838570  -3811.821977  10878.095320    -20.954849  7  6  6 102       
PG06  17298.940584   1046.594323 -20110.369532    412.013960  7  5  7 103       
PG07   1080.269192  18610.212858  18947.578125    271.493795  3  4  2 100       
PG08  -8675.486339  15707.693318  19599.952397    -82.694730  6  7  8 114       
PG09   7759.170114  25335.880836  -1800.404121    478.573421  4  6  5 108       
PG10 -22415.707585 -10915.877402   9381.104632    122.170148  5  5  6  69       
PG11  -8981.912321  24988.982077   1410.699395   -728.996568  1  6  6  67       
PG12   9975.494495 -12123.200168 -21555.338162    362.211489  7  9  6 111       
PG13  13324.231689  -7949.451730  21442.307350    -94.466319  3  5  3  78       
PG14 -15988.606580  -9833.054625 -18580.010091    -89.782897  9  6  6  91       
PG15   6970.441625 -17810.331831  18072.715354   -357.334180  4  7  4 104       
PG16 -23795.456109   1621.565683  11980.068538     35.869415  4  5  6  95       
PG17  14134.648662  18528.740491 -12502.079880   -140.728910  6  3  6  72       
PG18 -13222.118817 -15377.523067  17830.446872    633.207797  6  4  7  95       
PG19  15608.722182  10690.014020 -18831.132427   -472.262984  6  5  7  90       
PG20   9564.266448 -14294.233128  20080.572585    494.450342  5  7  6 109       
PG21  -4318.700046 -17895.814479  19919.165292   -456.554307  4  1  6 112       
PG22 -14333.423736  12160.320210 -18537.524901   -208.888214  2  9  4 106       
PG23   -546.257851  23493.357770 -11693.526551   -218.878528  2  8  6  96       
PG24  13721.561683 -22164.962061  -4351.441293    -42.949326  5  9  7 118       
PG25  -4526.907839 -15547.875090 -21252.533665   -499.217523  8  5  3  99       
PG26 -26334.381349  -3647.301903   1370.699086   -340.327365  2  7  6  86       
PG27 -14713.852845   2755.140656  21894.119709    352.835991  5  4  7 107       
PG28  18834.050688  14135.373672  12896.339455    667.578597  6  6  3 110       
PG29  -2949.987798 -25670.667197  -6188.743247    530.571584  5 10  4  87       
PG30   9908.806228  12041.225452  21499.705455    123.761965  6  3  6  89       
PG31 -18377.500325    283.131588 -19260.777151    158.193096  7  7  7  91       
PG32 -16043.679519 -16021.367770 -13862.105142   -527.542687  7  5  7  87       
*  2017 12  2 17  0  0.00000000
PG01 -13051.338941  22484.027971  -4786.010642    -14.157601  2  2  2 114       
PG02  19292.766688  -9412.617751 -14915.578550    265.762111  4  4  6  85       
PG03  -8571.901630  13776.756961 -21039.017061    -33.289629  4  8  7 113       
PG05  25054.754413  -3409.497933   8359.594290    -20.953945  7  6  6 101       
PG06  15881.967000   2932.391488 -21068.048709    412.015103  7  5  7  99       
PG07   -364.605445  20080.709795  17352.236855    271.489023  4  5  3  83       
PG08  -9610.874847  13608.401290  20715.427080    -82.695877  6  6  8 116       
PG09   7369.635982  25099.557118  -4609.993958    478.577557  4  6  5 120       
PG10 -21188.786188 -10943.266888  11864.251643    122.176649  5  5  6  60       
PG11  -9272.868228  24516.437246   4116.856611   -728.998197  1  7  6  86       
PG12  12283.134755 -11550.186109 -20635.283868    362.209958  7  9  6 107       
PG13  13966.956717  -5537.533887  21785.658955    -94.466209  3  6  3  97       
PG14 -16446.335685 -11865.135365 -16961.772273    -89.783448  8  6  7  89       
PG15   8081.416800 -15900.827887  19366.877378   -357.334163  4  6  5 104       
PG16 -24959.207188   1207.153538   9455.171548     35.869183  3  4  6  76       
PG17  14392.761784  19847.836521 -10024.042816   -140.726788  6  5  6  77       
PG18 -11197.368839 -15323.585559  19239.381146    633.207934  5  3  7 101       
PG19  16028.491930  12660.418364 -17137.881262   -472.261046  6  5  7  97       
PG20  11833.609706 -14035.824866  19031.156253    494.451087  6  7  6 103       
PG21  -2986.855141 -19476.257971  18576.302575   -456.550618  4  3  6 115       
PG22 -16392.227575  11748.038549 -17059.532599   -208.899648  3  9  4 120       
PG23  -1365.823585  22178.755794 -13965.647414   -218.878469  3  7  5 107       
PG24  14176.846578 -22236.502987  -1540.965306    -42.950649  5  9  7 115       
PG25  -2126.351612 -15195.628267 -21858.963552   -499.223086  8  5  3 111       
PG26 -26291.823501  -3901.239242  -1471.387643   -340.314431  3  7  6  89       
PG27 -15594.103978    429.120095  21471.098499    352.838770  5  5  7 109       
PG28  17341.949089  13897.927359  15163.165758    667.581693  5  7  2 102       
PG29  -2518.798488 -24904.866774  -8912.251453    530.566746  5 10  3 101       
PG30   8235.662879  13822.357483  21118.004008    123.759545  6  4  6  90       
PG31 -16958.102174  -1490.969615 -20430.356843    158.190896  7  7  7  91       
PG32 -16379.544656 -17453.886046 -11556.967884   -527.544770  7  5  7 108       
EOF
